FID,Name,Address,City,Zipcode,geom
Pools_ColumbiaAssociation.fid-fa4324a_1504e07b18a_65c2,HOPEWELL POOL,9200 RUSTLING LEAF,Columbia,21045,POINT (1359698.6670667932 550869.6472559747)
Pools_ColumbiaAssociation.fid-fa4324a_1504e07b18a_65c3,LOCUST PARK POOL,8995 LAMBSKIN LN,Columbia,21045,POINT (1362575.8472747158 562635.9124456114)
Pools_ColumbiaAssociation.fid-fa4324a_1504e07b18a_65c4,HAMMOND PARK POOL,8034 HELMART DR,Laurel,20723,POINT (1345815.2701892194 539612.9101654117)
Pools_ColumbiaAssociation.fid-fa4324a_1504e07b18a_65c5,CLEMENS CROSSING POOL,6400 MARTIN RD,Columbia,21044,POINT (1349104.521369856 556347.4401510705)
Pools_ColumbiaAssociation.fid-fa4324a_1504e07b18a_65c6,RIVER HILL POOL,6330 TROTTER RD,Clarksville,21029,POINT (1334124.804986751 557278.4044722384)
Pools_ColumbiaAssociation.fid-fa4324a_1504e07b18a_65c7,CLARYS FOREST POOL,11615 LITTLE PATUXENT PKWY,Columbia,21044,POINT (1341282.196825318 560411.6657178918)
Pools_ColumbiaAssociation.fid-fa4324a_1504e07b18a_65c8,HOBBITS GLEN POOL,11130 WILLOW BOTTOM DR,Columbia,21044,POINT (1340283.041782103 567290.7340514509)
Pools_ColumbiaAssociation.fid-fa4324a_1504e07b18a_65c9,OWEN BROWN POOL,6800 CRADLEROCK WAY,Columbia,21045,POINT (1357382.8164935769 556180.6216464915)
Pools_ColumbiaAssociation.fid-fa4324a_1504e07b18a_65ca,PHELPS LUCK POOL,8995 PHELPS LUCK DR,Columbia,21045,POINT (1363739.4795101648 566948.9024490856)
Pools_ColumbiaAssociation.fid-fa4324a_1504e07b18a_65cb,HUNTINGTON POOL,7625 MURRAY HILL RD,Columbia,21046,POINT (1355019.2616813316 544702.630539329)
Pools_ColumbiaAssociation.fid-fa4324a_1504e07b18a_65cc,JEFFERS HILL POOL,6030 TAMAR DR,Columbia,21045,POINT (1361276.7115873017 560386.7892742265)
Pools_ColumbiaAssociation.fid-fa4324a_1504e07b18a_65cd,MACGILL'S COMMON POOL,10025 SHAKER DR,Columbia,21046,POINT (1352059.2575492058 550727.705195061)
Pools_ColumbiaAssociation.fid-fa4324a_1504e07b18a_65ce,THUNDER HILL POOL,9205 LOG CHAIN RD,Columbia,21045,POINT (1360059.2291679184 569027.6951473741)
Pools_ColumbiaAssociation.fid-fa4324a_1504e07b18a_65cf,LONGFELLOW POOL,5257 ELIOTS OAK RD,Columbia,21044,POINT (1345614.7953196813 568033.2227288489)
Pools_ColumbiaAssociation.fid-fa4324a_1504e07b18a_65d0,STEVENS FOREST POOL,6055 STEVENS FOREST RD,Columbia,21045,POINT (1356348.5417651872 559689.9561875555)
Pools_ColumbiaAssociation.fid-fa4324a_1504e07b18a_65d1,DICKINSON POOL,7425 WEATHER WORN WAY,Columbia,21046,POINT (1348805.1260537435 546124.3924608108)
Pools_ColumbiaAssociation.fid-fa4324a_1504e07b18a_65d2,DORSEY HALL SWIM CLUB,4649 COLUMBIA RD,Ellicott City,21042,POINT (1357878.5893826238 576732.3687465775)
Pools_ColumbiaAssociation.fid-fa4324a_1504e07b18a_65d3,HAWTHORN POOL,6175 SUNNY SPRING,Columbia,21044,POINT (1345363.6895706835 561044.1127150763)
Pools_ColumbiaAssociation.fid-fa4324a_1504e07b18a_65d4,BRYANT WOODS,10451 GREEN MOUNTAIN CIR,Columbia,21044,POINT (1350122.114247788 566479.7619879626)
Pools_ColumbiaAssociation.fid-fa4324a_1504e07b18a_65d5,TALBOT SPRINGS POOL,9660 BASKET RING RD,Columbia,21045,POINT (1355859.500149132 563594.9725149189)
Pools_ColumbiaAssociation.fid-fa4324a_1504e07b18a_65d6,KENDALL RIDGE POOL,8245 TAMAR DR,Columbia,21045,POINT (1368255.578359565 559428.6071970484)
Pools_ColumbiaAssociation.fid-fa4324a_1504e07b18a_65d7,SWANSFIELD POOL,5659 CEDAR LN,Columbia,21044,POINT (1344439.4565225074 564906.4000921441)
Pools_ColumbiaAssociation.fid-fa4324a_1504e07b18a_65d8,RUNNING BROOK POOL,5730 COLUMBIA RD,Columbia,21044,POINT (1352955.6875132855 568780.6866949799)
Pools_ColumbiaAssociation.fid-fa4324a_1504e07b18a_65d9,FAULKNER RIDGE POOL,10518 MARBLE FAUN LN,Columbia,21044,POINT (1347791.045144329 566750.7688918926)
Day_Care_Center_Large.fid-fa4324a_1504e07b18a_6447,HOLLIFIELD STATION ELEM PREK,410-313-2550,ELLICOTT CITY,21043,POINT (1363862.3984082758 595797.967835695)
Day_Care_Center_Large.fid-fa4324a_1504e07b18a_6448,MIDDLE PATUXENT NURSERY SCHL,443-535-9030,CLARKSVILLE,21029,POINT (1334156.9980314942 557275.7704958502)
Day_Care_Center_Large.fid-fa4324a_1504e07b18a_6449,HOLLIFIELD STATION ELEM EXT REC PROG,410-313-2794,ELLICOTT CITY,21043,POINT (1363862.3984082758 595797.967835695)
Day_Care_Center_Large.fid-fa4324a_1504e07b18a_644a,BROOKFIELD CHRISTIAN SCHOOL LLC,410-531-9443,CLARKSVILLE,21029,POINT (1327817.8948574935 561040.6007465589)
Day_Care_Center_Large.fid-fa4324a_1504e07b18a_644b,JEFFERS HILL ELEM SAS,410-964-1393,COLUMBIA,21045,POINT (1361560.8883731721 560435.3715053846)
Day_Care_Center_Large.fid-fa4324a_1504e07b18a_644d,THE GODDARD SCHOOL - COLUMBIA,410-531-1511,COLUMBIA,21044,POINT (1345835.1713441515 556182.6702947933)
Day_Care_Center_Large.fid-fa4324a_1504e07b18a_644e,RAINBOW CHRISTIAN LEARNING CENTER,301-821-7214,COLUMBIA,21045,POINT (1361001.0220586818 569930.5637204023)
Day_Care_Center_Large.fid-fa4324a_1504e07b18a_644f,COLUMBIA ACADEMY SCHOOL,410-312-7413,COLUMBIA,21046,POINT (1348454.2218660414 550823.4063371615)
Day_Care_Center_Large.fid-fa4324a_1504e07b18a_6450,CLARLEN NURSERY,410-465-7405,ELLICOTT CITY,21042,POINT (1353141.5291806674 592252.050289241)
Day_Care_Center_Large.fid-fa4324a_1504e07b18a_6451,KREATIVE KIDZ LLC,888-382-1241,ELLICOTT CITY,21042,POINT (1351476.2707753088 587980.61857989)
Day_Care_Center_Large.fid-fa4324a_1504e07b18a_6453,CLEMENS CROSSING ELEM SAS,410-964-1297,COLUMBIA,21044,POINT (1348282.1354086862 556326.6610040088)
Day_Care_Center_Large.fid-fa4324a_1504e07b18a_6455,THE KIDS CONNECTION INC,410-992-6820,COLUMBIA,21045,POINT (1363734.2115573888 566951.5364254736)
Day_Care_Center_Large.fid-fa4324a_1504e07b18a_6456,HAMMOND ELEMENTARY SAS,301-725-2115,LAUREL,20723,POINT (1346825.8391301162 539546.1827635801)
Day_Care_Center_Large.fid-fa4324a_1504e07b18a_6458,KINDER CARE LEARNING CTR 1482,410-730-5757,COLUMBIA,21044,POINT (1347294.6869271959 564189.6658505407)
Day_Care_Center_Large.fid-fa4324a_1504e07b18a_6459,CELEBREE LEARNING CTR,410-461-5557,ELLICOTT CITY,21042,POINT (1353239.5716351129 587929.9877004301)
Day_Care_Center_Large.fid-fa4324a_1504e07b18a_645a,RUNNING BROOK CHILDRENS NURSERY,410-997-4662,COLUMBIA,21044,POINT (1352866.4249801335 568648.1098834461)
Day_Care_Center_Large.fid-fa4324a_1504e07b18a_645b,LONGFELLOW ELEMENTARY SAS,410-964-1398,COLUMBIA,21044,POINT (1345890.1921842583 568118.095301354)
Day_Care_Center_Large.fid-fa4324a_1504e07b18a_645c,BELLOWS SPRING ELEM PREK,410-313-5057,ELLICOTT CITY,21043,POINT (1372825.2347288565 559999.5947451774)
Day_Care_Center_Large.fid-fa4324a_1504e07b18a_645d,BET YELADIM PRESCHOOL,410-997-7378,COLUMBIA,21045,POINT (1362846.8541786459 568490.9492922901)
Day_Care_Center_Large.fid-fa4324a_1504e07b18a_645f,CRADLEROCK ELEMENTARY SAS,410-381-0430,COLUMBIA,21045,POINT (1356882.653643883 555563.9785076355)
Day_Care_Center_Large.fid-fa4324a_1504e07b18a_6460,ST PETERS EPISCOPAL SCHOOL,410-461-7283,ELLICOTT CITY,21043,POINT (1366294.1439425682 583810.741293502)
Day_Care_Center_Large.fid-fa4324a_1504e07b18a_6462,COLUMBIA MONTESSORI SCHOOL,410-772-8353,COLUMBIA,21044,POINT (1347721.6837661094 566641.0198757222)
Day_Care_Center_Large.fid-fa4324a_1504e07b18a_6463,GORMAN CROSSING ELEM PREK,410-880-5900,LAUREL,20723,POINT (1352149.398074487 538486.4462634389)
Day_Care_Center_Large.fid-fa4324a_1504e07b18a_6465,JOY IN LEARNING COLUMBIA,410-740-2999,COLUMBIA,21045,POINT (1362434.1978778453 562703.5178395724)
Day_Care_Center_Large.fid-fa4324a_1504e07b18a_6466,HORIZON,410-774-5888,CLARKSVILLE,21029,POINT (1328628.2815928955 559984.083550892)
Day_Care_Center_Large.fid-fa4324a_1504e07b18a_6467,THE GODDARD SCHOOL @ COLUMBIA 100,410-730-1500,COLUMBIA,21045,POINT (1364689.4669941356 570448.8717407696)
Day_Care_Center_Large.fid-fa4324a_1504e07b18a_6469,LOVE OF LEARNING MONTESSORI SCHOOL,410-715-9600,COLUMBIA,21045,POINT (1363195.709718046 570167.6215953303)
Day_Care_Center_Large.fid-fa4324a_1504e07b18a_646a,BRYANT WOODS MONTESSORI,410-730-7525,COLUMBIA,21044,POINT (1350150.2099959275 566511.3697046196)
Day_Care_Center_Large.fid-fa4324a_1504e07b18a_646b,COLUMBIA ACADEMY PRESCHOOL 4,410-203-9608,ELLICOTT CITY,21043,POINT (1369790.6012657348 561636.7574023963)
Day_Care_Center_Large.fid-fa4324a_1504e07b18a_646c,THUNDER HILL ELEM SAS,410-964-1497,COLUMBIA,21045,POINT (1359206.1134822206 569009.2573126574)
Day_Care_Center_Large.fid-fa4324a_1504e07b18a_646d,BETHANY LANE BAPTIST CHURCH CCC,410-461-3393,ELLICOTT CITY,21042,POINT (1352399.0405032693 590513.3332090591)
Day_Care_Center_Large.fid-fa4324a_1504e07b18a_646e,EMMANUEL UNITED METHODIST PRESCHOOL,301-725-5178,LAUREL,20723,POINT (1344792.4093585114 536470.8689984647)
Day_Care_Center_Large.fid-fa4324a_1504e07b18a_646f,PS EMPLOYEES CDP @ OAKLAND MILLS S,410-888-9040,COLUMBIA,21045,POINT (1357881.2233590118 561565.3473758748)
Day_Care_Center_Large.fid-fa4324a_1504e07b18a_6470,SWANSFIELD ELEM BASC,410-964-1488,COLUMBIA,21044,POINT (1343862.323029473 564527.6928203455)
Day_Care_Center_Large.fid-fa4324a_1504e07b18a_6471,BRYANT WOODS ELEM SAS,410-964-1294,COLUMBIA,21044,POINT (1349955.2957432088 566105.4446768109)
Day_Care_Center_Large.fid-fa4324a_1504e07b18a_6472,WAVERLY ES EXT RECREATION PROG,410-313-2633,ELLICOTT CITY,21043,POINT (1349495.2278674226 596714.59161875)
Day_Care_Center_Large.fid-fa4324a_1504e07b18a_6473,GAN ISRAEL PRESCHOOL,410-740-2424,COLUMBIA,21044,POINT (1351262.6260238304 558833.6211973834)
Day_Care_Center_Large.fid-fa4324a_1504e07b18a_6474,CRADLEROCK ELEM PREK,410-313-7601,COLUMBIA,21045,POINT (1356882.653643883 555563.9785076355)
Day_Care_Center_Large.fid-fa4324a_1504e07b18a_6475,LA PETITE CHILD CARE CENTER,410-740-5546,COLUMBIA,21045,POINT (1364623.6175844334 570944.9372938597)
Day_Care_Center_Large.fid-fa4324a_1504e07b18a_6476,THE LITTLE LIGHTHOUSE,410-750-0660,ELLICOTT CITY,21042,POINT (1361933.4497000652 585754.0305398254)
Day_Care_Center_Large.fid-fa4324a_1504e07b18a_6477,PATUXENT SQUARE CHILD CARE & LC,301-776-7722,LAUREL,20723,POINT (1359358.2987846436 527223.5632279704)
Day_Care_Center_Large.fid-fa4324a_1504e07b18a_6478,CRADLEROCK CHILDREN CENTER,410-381-0906,COLUMBIA,21045,POINT (1356265.717840984 553810.6282252977)
Day_Care_Center_Large.fid-fa4324a_1504e07b18a_6479,LONGFELLOW NURSERY SCHOOL,410-591-1319,CLARKSVILLE,21029,POINT (1334156.9980314942 557275.7704958502)
Day_Care_Center_Large.fid-fa4324a_1504e07b18a_647a,MANOR WOODS EXTD REC PROGRAM,410-313-7244,ELLICOTT CITY,21042,POINT (1336731.5636188297 591238.8473719561)
Day_Care_Center_Large.fid-fa4324a_1504e07b18a_647b,ATHOLTON ELEM BASC,410-715-3116,COLUMBIA,21046,POINT (1351105.4654326744 553286.4669240679)
Day_Care_Center_Large.fid-fa4324a_1504e07b18a_647c,FOLLY QUARTER NEW STUDENT UNION,410-313-5898,ELLICOTT CITY,21042,POINT (1316923.4758523141 582544.9693070037)
Day_Care_Center_Large.fid-fa4324a_1504e07b18a_647e,VETERANS ES RECREATIONAL LICENSED CC,410-313-1687,ELLICOTT CITY,21043,POINT (1365306.1101329916 578188.3723611045)
Day_Care_Center_Large.fid-fa4324a_1504e07b18a_647f,TALBOTT SPRINGS ELEM SAS,410-964-1492,COLUMBIA,21045,POINT (1356652.61970599 563234.703077837)
Day_Care_Center_Large.fid-fa4324a_1504e07b18a_6480,BETHEL CHRISTIAN PRESCHOOL,410-465-1192,ELLICOTT CITY,21043,POINT (1364282.9566382407 577986.4341713509)
Day_Care_Center_Large.fid-fa4324a_1504e07b18a_6481,FOREST RIDGE EXT REC PROGRAM,410-880-5857,LAUREL,20723,POINT (1357724.355431899 534826.9750682539)
Day_Care_Center_Large.fid-fa4324a_1504e07b18a_6482,GLEN MAR EARLY LEARNING CENTER,410-461-2859,ELLICOTT CITY,21043,POINT (1368513.708045598 573671.688183618)
Day_Care_Center_Large.fid-fa4324a_1504e07b18a_6484,ILCHESTER ELEM PREK,410-313-2524,ELLICOTT CITY,21043,POINT (1376378.1762123452 569838.9598749054)
Day_Care_Center_Large.fid-fa4324a_1504e07b18a_6485,FIRST PRESBYTERIAN CHURCH,410-884-3500,COLUMBIA,21045,POINT (1359065.0494134363 572338.3108031588)
Day_Care_Center_Large.fid-fa4324a_1504e07b18a_6486,KINDER CARE LEARNING CTR,410-290-0928,COLUMBIA,21046,POINT (1367889.748305664 552227.9010800993)
Day_Care_Center_Large.fid-fa4324a_1504e07b18a_6488,GUILFORD ELEM PREK,410-880-5930,COLUMBIA,21046,POINT (1360600.364983649 547322.2663893051)
Day_Care_Center_Large.fid-fa4324a_1504e07b18a_648a,CHILDREN & COMPANY,410-992-4644,COLUMBIA,21045,POINT (1363734.2115573888 566951.5364254736)
Day_Care_Center_Large.fid-fa4324a_1504e07b18a_648b,VETERANS EARLY LEARNING CENTER,410-313-4712,ELLICOTT CITY,21043,POINT (1365306.1101329916 578188.3723611045)
Day_Care_Center_Large.fid-fa4324a_1504e07b18a_648c,PS EMPLOYEE CDP @ ATHOLTON HIGH SCHOOL,410-888-9040,COLUMBIA,21044,POINT (1346179.3442588618 554094.2196830818)
Day_Care_Center_Large.fid-fa4324a_1504e07b18a_6490,COLUMBIA ACADEMY PRESCHL 1,410-992-0484,COLUMBIA,21045,POINT (1360350.1372267806 571612.2113121756)
Day_Care_Center_Large.fid-fa4324a_1504e07b18a_6494,RUNNING BROOK ELEMENTARY BASC,410-964-1409,COLUMBIA,21044,POINT (1352685.2659374417 568966.8210264049)
Day_Care_Center_Large.fid-fa4324a_1504e07b18a_6495,ATHOLTON ADVENTIST ACADEMY,410-740-2425,COLUMBIA,21044,POINT (1349430.549113893 555711.7738494116)
Day_Care_Center_Large.fid-fa4324a_1504e07b18a_6496,RUNNING BROOK ELEM PREK,410-313-6893,COLUMBIA,21044,POINT (1352685.2659374417 568966.8210264049)
Day_Care_Center_Large.fid-fa4324a_1504e07b18a_6497,CLARKSVILLE ELEM SAS,301-596-9849,CLARKSVILLE,21029,POINT (1332420.3295996143 565228.3305395772)
Day_Care_Center_Large.fid-fa4324a_1504e07b18a_6498,STEVENS FOREST ELEMENTARY BASC,410-964-1476,COLUMBIA,21045,POINT (1356243.76803775 560207.9715438796)
Day_Care_Center_Large.fid-fa4324a_1504e07b18a_6499,WISHING WELL LEARNING CENTER,443-683-5228,COLUMBIA,21045,POINT (1362551.2634950937 562610.1580098168)
Day_Care_Center_Large.fid-fa4324a_1504e07b18a_649b,YMCA CHILD CARE @ OWEN BROWN,410-290-6505,COLUMBIA,21045,POINT (1359382.0045721363 555100.3986633319)
Day_Care_Center_Large.fid-fa4324a_1504e07b18a_649c,PS EMPLOYEES CDP @ LONG REACH,410-888-9040,COLUMBIA,21045,POINT (1365833.7834027389 560609.7992750847)
Day_Care_Center_Large.fid-fa4324a_1504e07b18a_649d,TALBOTT SPRINGS ELEM PREK,410-313-6915,COLUMBIA,21045,POINT (1356652.61970599 563234.703077837)
Day_Care_Center_Large.fid-fa4324a_1504e07b18a_649e,RESURRECTION-ST PAUL EDUCARE,410-461-9111,ELLICOTT CITY,21042,POINT (1360567.8792748626 588416.102676054)
Day_Care_Center_Large.fid-fa4324a_1504e07b18a_649f,KINDER CARE LEARNING CTR,410-730-8449,COLUMBIA,21044,POINT (1345281.4509745666 560798.2749188546)
Day_Care_Center_Large.fid-fa4324a_1504e07b18a_64a0,CELEBRATION CHRISTIAN ACADEMY,410-997-2384,COLUMBIA,21045,POINT (1364325.9782525795 560521.7073981053)
Day_Care_Center_Large.fid-fa4324a_1504e07b18a_64a1,CHILDTIME LEARNING CENTER,410-480-9212,ELLICOTT CITY,21043,POINT (1369585.443771507 572098.0336237565)
Day_Care_Center_Large.fid-fa4324a_1504e07b18a_64a2,HOWARD COMMUNITY COLLEGE CLC,443-518-1360,COLUMBIA,21044,POINT (1346400.012947375 564257.5639085448)
Day_Care_Center_Large.fid-fa4324a_1504e07b18a_64a3,CAN-TEEN CLUB @ BONNIE BRANCH MS,410-313-2632,ELLICOTT CITY,21043,POINT (1376690.4487463555 570278.5412676731)
Day_Care_Center_Large.fid-fa4324a_1504e07b18a_64a5,DUNLOGGIN MIDDLE SAS,410-461-1419,ELLICOTT CITY,21042,POINT (1359907.6291935816 579026.2695165599)
Day_Care_Center_Large.fid-fa4324a_1504e07b18a_64a6,HILLTOP CHILD CARE CENTER,443-535-8505,CLARKSVILLE,21029,POINT (1331043.34527673 563438.104587806)
Day_Care_Center_Large.fid-fa4324a_1504e07b18a_64a8,ST LOUIS EARLY LEARNING CENTER,410-531-6664,CLARKSVILLE,21029,POINT (1328221.4785729572 560398.4958359513)
Day_Care_Center_Large.fid-fa4324a_1504e07b18a_64a9,POINTERS RUN ELEM EXT REC PROG,410-313-7277,CLARKSVILLE,21029,POINT (1333199.4012824022 555111.5198969705)
Day_Care_Center_Large.fid-fa4324a_1504e07b18a_64aa,GORMAN CROSSING ELEM EXTENDED REC PROGRAM,410-313-7275,LAUREL,20723,POINT (1352149.398074487 538486.4462634389)
Day_Care_Center_Large.fid-fa4324a_1504e07b18a_64ab,EAST COLUMBIA PRESCHOOL,410-290-9166,COLUMBIA,21045,POINT (1357386.6211261374 556143.4533130152)
Day_Care_Center_Large.fid-fa4324a_1504e07b18a_64ac,MT HEBRON PRESBY CHURCH NURSERY  SCHOOL,410-461-2773,ELLICOTT CITY,21042,POINT (1360115.1280001544 596861.5089683967)
Day_Care_Center_Large.fid-fa4324a_1504e07b18a_64ad,LITTLE STARS LEARNING CENTER,410-992-3999,COLUMBIA,21044,POINT (1345376.566788581 568089.4142251281)
Day_Care_Center_Large.fid-fa4324a_1504e07b18a_64b0,OUR LADY OF PERPETUAL HELP,410-744-4251,ELLICOTT CITY,21043,POINT (1377905.5898533938 572494.3007381422)
Day_Care_Center_Large.fid-fa4324a_1504e07b18a_64b2,CHILDRENS TIME PRESCHOOL,410-964-1534,COLUMBIA,21046,POINT (1352068.6227985858 550765.1661925805)
Day_Care_Center_Large.fid-fa4324a_1504e07b18a_64b4,ED-U-CARE LEARNING CENTER,410-997-2633,COLUMBIA,21044,POINT (1341097.818478152 560390.8865708302)
Day_Care_Center_Large.fid-fa4324a_1504e07b18a_64b6,ATHOLTON ELEM PREK,410-313-6853,COLUMBIA,21046,POINT (1351105.4654326744 553286.4669240679)
Day_Care_Center_Large.fid-fa4324a_1504e07b18a_64b7,KNOWLEDGE BEGINNINGS,301-725-6500,LAUREL,20723,POINT (1342701.324770412 544556.5911818116)
Day_Care_Center_Large.fid-fa4324a_1504e07b18a_64b8,ANGELS AFTER CARE OLPH,410-744-1133,ELLICOTT CITY,21043,POINT (1377905.5898533938 572494.3007381422)
Day_Care_Center_Large.fid-fa4324a_1504e07b18a_64b9,TRIADELPHIA RIDGE ELEM EXTD REC PROGRAM,410-313-5470,ELLICOTT CITY,21042,POINT (1318097.6439933155 582589.4542415581)
Day_Care_Center_Large.fid-fa4324a_1504e07b18a_64ba,GLOBAL CHILDREN MONTESSORI SCHOOL,410-241-5771,ELLICOTT CITY,21043,POINT (1368654.7721143821 572933.5894668669)
Day_Care_Center_Large.fid-fa4324a_1504e07b18a_64bb,NORTHFIELD ELEMENTARY SAS,410-461-4349,ELLICOTT CITY,21042,POINT (1360389.646872602 578798.5768910118)
Day_Care_Center_Large.fid-fa4324a_1504e07b18a_64bc,COLUMBIA ACADEMY PRSCHL 3,410-312-9790,COLUMBIA,21046,POINT (1348056.1987673969 550752.2889746831)
Day_Care_Center_Large.fid-fa4324a_1504e07b18a_64be,DASHER GREEN HEADSTART,410-313-6210,COLUMBIA,21045,POINT (1356718.4691156922 555329.2619450525)
Day_Care_Center_Large.fid-fa4324a_1504e07b18a_64bf,CHILDS GARDEN LEARNING CENTER,410-884-5477,COLUMBIA,21046,POINT (1350190.8902979214 552900.7357152344)
Day_Care_Center_Large.fid-fa4324a_1504e07b18a_64c1,SWANSFIELD ELEM PREK,410-313-6907,COLUMBIA,21044,POINT (1343862.323029473 564527.6928203455)
Day_Care_Center_Large.fid-fa4324a_1504e07b18a_64c4,WORTHINGTON ELEM BASC,410-461-5916,ELLICOTT CITY,21043,POINT (1370297.2027243772 574824.1991854286)
Day_Care_Center_Large.fid-fa4324a_1504e07b18a_64c5,LONGFELLOW ELEM PREK,410-313-6879,COLUMBIA,21044,POINT (1345890.1921842583 568118.095301354)
Day_Care_Center_Large.fid-fa4324a_1504e07b18a_64c6,WILDE LAKE CHILDRENS NURSERY,410-997-4856,COLUMBIA,21044,POINT (1347768.8026770519 566744.9156110302)
Day_Care_Center_Large.fid-fa4324a_1504e07b18a_64c8,OUR LADY OF PERPETUAL HELP PRESCHOOL,410-744-4251,ELLICOTT CITY,21043,POINT (1377905.5898533938 572494.3007381422)
Day_Care_Center_Large.fid-fa4324a_1504e07b18a_64c9,JULIA BROWN MONTESSORI,301-498-0604,LAUREL,20723,POINT (1357714.9901825192 525573.230688811)
Day_Care_Center_Large.fid-fa4324a_1504e07b18a_64ca,ELLICOTT CITY HEAD START,410-313-2750,ELLICOTT CITY,21043,POINT (1367129.4071216355 592021.1383592185)
Day_Care_Center_Large.fid-fa4324a_1504e07b18a_64cb,S.T.A.R.S. LEARNING CENTER,301-498-5285,LAUREL,20723,POINT (1357530.904499396 530273.1225572912)
Day_Care_Center_Large.fid-fa4324a_1504e07b18a_64cd,OAKLAND MILLS NURSERY SCHOOL,410-997-4024,COLUMBIA,21045,POINT (1360167.8075279163 569050.2302786943)
Day_Care_Center_Large.fid-fa4324a_1504e07b18a_64ce,TRINITY PRESCHOOL & EXTENDED DAY,410-455-9825,ELLICOTT CITY,21043,POINT (1379029.4197789785 568840.3901597766)
Day_Care_Center_Large.fid-fa4324a_1504e07b18a_64cf,POINTERS RUN ELEM PREK,410-313-7142,CLARKSVILLE,21029,POINT (1333199.4012824022 555111.5198969705)
Day_Care_Center_Large.fid-fa4324a_1504e07b18a_64d0,LA PETITE CHILD CARE CENTER,410-381-4576,COLUMBIA,21046,POINT (1348692.4503971417 546299.112894554)
Day_Care_Center_Large.fid-fa4324a_1504e07b18a_64d1,FIRM FOUNDATION PRESCHOOL,410-505-1006,ELLICOTT CITY,21043,POINT (1368298.8926379469 567971.7632797934)
Day_Care_Center_Large.fid-fa4324a_1504e07b18a_64d2,JULIA BROWN MONTESSORI,410-730-5056,COLUMBIA,21045,POINT (1354892.5381506602 559426.2658847034)
Day_Care_Center_Large.fid-fa4324a_1504e07b18a_64d3,APPLE TREE CHILDCARE,410-799-9445,COLUMBIA,21045,POINT (1368749.5952643533 559617.9608329476)
Day_Care_Center_Large.fid-fa4324a_1504e07b18a_64d4,CHILDRENS MANOR MONTESSORI SCHL & DC,410-461-6070,ELLICOTT CITY,21043,POINT (1366316.0937458023 576324.6877345099)
Day_Care_Center_Large.fid-fa4324a_1504e07b18a_64d6,CHILDREN OF AMERICA ELLICOTT CITY,443-459-3606,ELLICOTT CITY,21043,POINT (1371738.8658007912 577408.1300221438)
Day_Care_Center_Large.fid-fa4324a_1504e07b18a_64d7,STEVENS FOREST NURSERY SCHOOL,410-997-0808,COLUMBIA,21045,POINT (1356350.297749446 559701.3700852371)
Day_Care_Center_Large.fid-fa4324a_1504e07b18a_64d9,ILCHESTER EXTENDED RECREATION PROGRAM,410-313-2696,ELLICOTT CITY,21043,POINT (1376378.1762123452 569838.9598749054)
Day_Care_Center_Large.fid-fa4324a_1504e07b18a_64da,LAUREL WOODS EXTD REC PROGRAM,410-880-5860,LAUREL,20723,POINT (1357149.8559152526 528468.5560674071)
Day_Care_Center_Large.fid-fa4324a_1504e07b18a_64db,TRIADELPHIA RIDGE EARLY LEARNING CENTER,410-313-5471,ELLICOTT CITY,21042,POINT (1318097.6439933155 582589.4542415581)
Day_Care_Center_Large.fid-fa4324a_1504e07b18a_64dc,GLENELG COUNTRY SCHOOL EXT'D DAY PROG,410-531-7329,ELLICOTT CITY,21042,POINT (1323151.074025886 577279.6505072138)
Day_Care_Center_Large.fid-fa4324a_1504e07b18a_64de,CHILDTIME CHILDRENS CENTER,410-309-4020,COLUMBIA,21045,POINT (1361802.6288727901 551985.5752523951)
Day_Care_Center_Large.fid-fa4324a_1504e07b18a_64e0,GOOD BEGINNINGS CHILD CARE CENTER,301-776-6670,LAUREL,20723,POINT (1348422.321485341 540719.7655764953)
Day_Care_Center_Large.fid-fa4324a_1504e07b18a_64e1,NURTURING NEST MONTESSORI,410-772-6378,COLUMBIA,21045,POINT (1356086.0221185077 561850.1094898315)
Day_Care_Center_Large.fid-fa4324a_1504e07b18a_64e2,YOUNG SCHOOL EARLY ED PROGRAM,410-381-6098,COLUMBIA,21046,POINT (1348693.9137173574 549525.1486418769)
Day_Care_Center_Large.fid-fa4324a_1504e07b18a_64e4,CAN-TEEN CLUB @ PATAPSCO MS,410-313-4633,ELLICOTT CITY,21043,POINT (1364085.1157450909 594172.8044042441)
Day_Care_Center_Large.fid-fa4324a_1504e07b18a_64e5,WATERLOO ELEM PREK,410-313-5014,COLUMBIA,21045,POINT (1369630.5140341476 561122.2540145896)
Day_Care_Center_Large.fid-fa4324a_1504e07b18a_64e6,LAUREL WOODS ELEM PREK,410-880-5960,LAUREL,20723,POINT (1357149.8559152526 528468.5560674071)
Day_Care_Center_Large.fid-fa4324a_1504e07b18a_64e7,ELLICOTT MILLS MS-STUDENT UNION PROGRAM,410-313-2735,ELLICOTT CITY,21043,POINT (1365970.4575108762 576711.2969354728)
Day_Care_Center_Large.fid-fa4324a_1504e07b18a_64e8,WATERLOO ELEM SAS,410-799-7088,COLUMBIA,21045,POINT (1369630.5140341476 561122.2540145896)
Day_Care_Center_Large.fid-fa4324a_1504e07b18a_64ea,ROGER CARTER ELC,410-313-2749,ELLICOTT CITY,21043,POINT (1367616.6927534319 584925.4986337499)
Day_Care_Center_Large.fid-fa4324a_1504e07b18a_64eb,ST LOUIS AFTER SCHOOL CARE,410-489-9354,CLARKSVILLE,21029,POINT (1328221.4785729572 560398.4958359513)
Day_Care_Center_Large.fid-fa4324a_1504e07b18a_64ec,GUILFORD ELEMENTARY SAS,301-490-1608,COLUMBIA,21046,POINT (1360600.364983649 547322.2663893051)
Day_Care_Center_Large.fid-fa4324a_1504e07b18a_64ed,FIRST LUTHERAN PRESCHOOL,410-465-5977,ELLICOTT CITY,21042,POINT (1359484.4369872287 584764.2407459902)
Day_Care_Center_Large.fid-fa4324a_1504e07b18a_64ee,THE YOUNG SCHL EARLY EDUCATION PROGRAM,410-740-7476,COLUMBIA,21045,POINT (1368169.2424668444 559740.8797310585)
Day_Care_Center_Large.fid-fa4324a_1504e07b18a_64ef,ST JOHNS PARISH DAY SCHOOL,410-465-7644,ELLICOTT CITY,21042,POINT (1360626.1194194437 585470.4390820411)
Day_Care_Center_Large.fid-fa4324a_1504e07b18a_64f0,VETERANS ELEM PREK,410-313-1700,ELLICOTT CITY,21043,POINT (1365306.1101329916 578188.3723611045)
Day_Care_Center_Large.fid-fa4324a_1504e07b18a_64f1,THE LEARNING COTTAGE,410-740-5538,COLUMBIA,21045,POINT (1355857.158836787 563591.7532104446)
Day_Care_Center_Large.fid-fa4324a_1504e07b18a_64f2,CENTENNIAL LANE ELEM SAS,410-461-4322,ELLICOTT CITY,21042,POINT (1351523.9750143376 582579.5036640919)
Day_Care_Center_Large.fid-fa4324a_1504e07b18a_64f4,WAVERLY ELEM PREK,410-313-2819,ELLICOTT CITY,21042,POINT (1349495.2278674226 596714.59161875)
Day_Care_Center_Large.fid-fa4324a_1504e07b18a_64f5,CHILDRENS MANOR MONTESSORI & DAY CARE,410-730-3100,COLUMBIA,21045,POINT (1363514.1281969617 568349.0072313765)
Day_Care_Center_Large.fid-fa4324a_1504e07b18a_64f7,CROSSROADS ADVENTIST SCHOOL,410-465-6867,ELLICOTT CITY,21042,POINT (1361849.7477837326 588055.540574929)
Day_Care_Center_Large.fid-fa4324a_1504e07b18a_64fa,PS EMPLOYEES CDP @ RIVER HILL,410-531-3408,CLARKSVILLE,21029,POINT (1332510.4701248955 563958.168592432)
Day_Care_Center_Large.fid-fa4324a_1504e07b18a_64fc,KIDS HABITAT II,410-774-0123,COLUMBIA,21045,POINT (1360271.703263224 568937.5546220927)
Day_Care_Center_Large.fid-fa4324a_1504e07b18a_64fe,ST JOHNS LANE EXTD REC PROGRAM,410-313-2692,ELLICOTT CITY,21042,POINT (1359416.2462651816 591462.1500368575)
Day_Care_Center_Large.fid-fa4324a_1504e07b18a_6500,FUN TO BE KIDS @ BETHANY UMC,410-960-5590,ELLICOTT CITY,21042,POINT (1353141.5291806674 592252.050289241)
Day_Care_Center_Large.fid-fa4324a_1504e07b18a_6501,BELLOWS SPRING EXT RECREATION PROGRAM,410-313-5147,ELLICOTT CITY,21043,POINT (1372825.2347288565 559999.5947451774)
Day_Care_Center_Large.fid-fa4324a_1504e07b18a_6502,KIDZ PLAYSTATION,443-324-0575,COLUMBIA,21044,POINT (1344303.9530705425 564871.5730710127)
Day_Care_Center_Large.fid-fa4324a_1504e07b18a_6503,CHRIST MEMORIAL CHRISTIAN PRESCHOOL,410-997-8011,COLUMBIA,21046,POINT (1350499.3581993708 556103.3583391076)
Day_Care_Center_Large.fid-fa4324a_1504e07b18a_6505,WORLD CHAMPION MARTIAL ARTS CENTER,301-725-2121,LAUREL,20723,POINT (1356059.3896905836 529943.2901806938)
Day_Care_Center_Large.fid-fa4324a_1504e07b18a_6506,BETHANY LANE BAPTIST DCC,410-461-3393,ELLICOTT CITY,21042,POINT (1352399.0405032693 590513.3332090591)
Day_Care_Center_Large.fid-fa4324a_1504e07b18a_6507,ST PETERS EPISCOPAL SCHOOL,410-461-7283,ELLICOTT CITY,21043,POINT (1366294.1439425682 583810.741293502)
Day_Care_Center_Large.fid-fa4324a_1504e07b18a_6508,ALL ABOUT CHILDREN LEARNING CENTER,443-938-3751,COLUMBIA,21045,POINT (1361291.930117544 560390.301242744)
Day_Care_Center_Large.fid-fa4324a_1504e07b18a_6509,PHELPS LUCK ELEM BASC,410-964-1399,COLUMBIA,21045,POINT (1363860.3497599738 566522.4909382582)
Day_Care_Center_Large.fid-fa4324a_1504e07b18a_650a,PHELPS LUCK ELEM PREK,410-313-6886,COLUMBIA,21045,POINT (1363860.3497599738 566522.4909382582)
Day_Care_Center_Large.fid-fa4324a_1504e07b18a_650c,LA PETITE CHILD CARE CENTER,410-750-0826,ELLICOTT CITY,21042,POINT (1351490.6113134217 586689.3848216401)
Day_Care_Center_Large.fid-fa4324a_1504e07b18a_650d,LORNWOOD DAY CARE & GIFTED CENTER,410-992-7026,COLUMBIA,21044,POINT (1350024.3644573856 566621.9967129194)
Day_Care_Center_Large.fid-fa4324a_1504e07b18a_650f,HEAD START OLD CEDAR LANE,410-313-7246,COLUMBIA,21044,POINT (1344519.3538062796 567713.9262578039)
Day_Care_Center_Large.fid-fa4324a_1504e07b18a_6510,BRYANT WOODS ELEM PREK,410-313-6859,COLUMBIA,21044,POINT (1349955.2957432088 566105.4446768109)
Day_Care_Center_Large.fid-fa4324a_1504e07b18a_6512,KIDS TIME OUT,410-531-3858,CLARKSVILLE,21029,POINT (1329584.1223577287 563188.754823067)
Day_Care_Center_Large.fid-fa4324a_1504e07b18a_6513,MKD KIDS LEARNING CENTER,443-918-2103,COLUMBIA,21044,POINT (1344249.5175585218 561914.7882433613)
Schools_Elementary.fid-fa4324a_15051f1a12c_-6a18,Hollifield Station,8701 STONEHOUSE DR,Ellicott City,21043,POINT (1364014.5837106986 595742.069003459)
Schools_Elementary.fid-fa4324a_15051f1a12c_-6a17,Northfield,9125 NORTHFIELD RD,Ellicott City,21042,POINT (1360341.0646414438 578805.6008280467)
Schools_Elementary.fid-fa4324a_15051f1a12c_-6a16,St. Johns Lane,2960 SAINT JOHNS LN,Ellicott City,21042,POINT (1359408.3443360173 591494.6357456439)
Schools_Elementary.fid-fa4324a_15051f1a12c_-6a14,Bryant Woods,5450 BLUE HERON LN,Columbia,21044,POINT (1349866.033210057 566099.8840599916)
Schools_Elementary.fid-fa4324a_15051f1a12c_-6a12,Worthington,4570 ROUNDHILL RD,Ellicott City,21043,POINT (1370265.302343677 574871.6107604142)
Schools_Elementary.fid-fa4324a_15051f1a12c_-6a11,Waterloo,5940 WATERLOO RD,Columbia,21045,POINT (1369580.4684827738 561177.2748546964)
Schools_Elementary.fid-fa4324a_15051f1a12c_-6a10,Bellows Spring,8125 OLD STOCKBRIDGE DR,Ellicott City,21043,POINT (1372757.0440068091 560080.955349165)
Schools_Elementary.fid-fa4324a_15051f1a12c_-6a0f,Clarksville,12041 CLARKSVILLE PK,Clarksville,21029,POINT (1332651.53419368 565111.5575863719)
Schools_Elementary.fid-fa4324a_15051f1a12c_-6a0e,Forest Ridge,9550 GORMAN RD,Laurel,20723,POINT (1357667.8712715767 534855.6561444799)
Schools_Elementary.fid-fa4324a_15051f1a12c_-6a0d,OLD CEDAR LANE,5451 BEAVERKILL RD,Columbia,21044,POINT (1344542.474265686 567683.1965332761)
Schools_Elementary.fid-fa4324a_15051f1a12c_-6a0a,Stevens Forest,6045 STEVENS FOREST RD,Columbia,21045,POINT (1356228.2568434644 560169.6325542307)
Schools_Elementary.fid-fa4324a_15051f1a12c_-6a06,Atholton,6700 SENECA DR,Columbia,21046,POINT (1351117.4646584424 553330.073866493)
Schools_Elementary.fid-fa4324a_15051f1a12c_-6a05,Swansfield,5610 CEDAR LN,Columbia,21044,POINT (1343852.6651160498 564506.3283451977)
Schools_Elementary.fid-fa4324a_15051f1a12c_-6a04,Jeffers Hill,6001 TAMAR DR,Columbia,21045,POINT (1361539.2312339812 560484.2464005857)
Schools_Elementary.fid-fa4324a_15051f1a12c_-6a03,Pointers Run,6600 SOUTH TROTTER RD,Clarksville,21029,POINT (1333256.470770811 555248.194005108)
Schools_Elementary.fid-fa4324a_15051f1a12c_-6a02,VETERANS,4355 MONTGOMERY RD,Ellicott City,21043,POINT (1365280.355697197 578142.4241063345)
Schools_Elementary.fid-fa4324a_15051f1a12c_-6a01,Gorman Crossing,9999 WINTER SUN RD,Laurel,20723,POINT (1352136.5208565898 538470.3497410673)
Schools_Elementary.fid-fa4324a_15051f1a12c_-6a00,Thunder Hill,9357 MELLENBROOK RD,Columbia,21045,POINT (1359190.8949519782 569034.719084409)
Schools_Elementary.fid-fa4324a_15051f1a12c_-69ff,Ilchester,4981 ILCHESTER RD,Ellicott City,21043,POINT (1376357.3970652837 569880.5181690286)
Schools_Elementary.fid-fa4324a_15051f1a12c_-69fd,Triadelphia Ridge,13400 TRIADELPHIA RD,Ellicott City,21042,POINT (1318111.1065392992 582626.6225750344)
Schools_Elementary.fid-fa4324a_15051f1a12c_-69fc,Hammond,8110 ALADDIN DR,Laurel,20723,POINT (1346842.520980574 539560.523301693)
Schools_Elementary.fid-fa4324a_15051f1a12c_-69fb,Laurel Woods,9250 NORTH LAUREL RD,Laurel,20723,POINT (1357184.0976082976 528472.946028054)
Schools_Elementary.fid-fa4324a_15051f1a12c_-69fa,Cradlerock,6700 CRADLEROCK WAY,Columbia,21045,POINT (1356889.3849168748 555564.856499765)
Schools_Elementary.fid-fa4324a_15051f1a12c_-69f9,Waverly,10220 WETHERBURN RD,Ellicott City,21042,POINT (1349501.6664763715 596687.3738627398)
Schools_Elementary.fid-fa4324a_15051f1a12c_-69f8,Centennial Lane,3825 CENTENNIAL LN,Ellicott City,21042,POINT (1351505.2445155778 582523.0195037696)
Schools_Elementary.fid-fa4324a_15051f1a12c_-69f7,Talbott Springs,9550 BASKET RING RD,Columbia,21045,POINT (1356699.1532888461 563223.5818441984)
Schools_Elementary.fid-fa4324a_15051f1a12c_-69f6,Clemens Crossing,10320 QUARTERSTAFF RD,Columbia,21044,POINT (1348355.3014194665 556356.8054004504)
Schools_Elementary.fid-fa4324a_15051f1a12c_-69f5,Phelps Luck,5370 OLDSTONE CT,Columbia,21045,POINT (1363830.4980275757 566602.9735501165)
Schools_Elementary.fid-fa4324a_15051f1a12c_-69f4,Running Brook,5215 WEST RUNNING BROOK RD,Columbia,21044,POINT (1352745.8473943677 568939.6032703946)
Schools_Elementary.fid-fa4324a_15051f1a12c_-69f3,Longfellow,5470 HESPERUS DR,Columbia,21044,POINT (1345908.922683018 568184.8227031856)
Schools_Elementary.fid-fa4324a_15051f1a12c_-69f2,Guilford,7335 OAKLAND MILLS RD,Columbia,21046,POINT (1360590.1217421398 547325.1930297363)
Schools_Elementary.fid-fa4324a_15051f1a12c_-69f1,Manor Woods,11575 FREDERICK RD,Ellicott City,21042,POINT (1336683.5667157578 591584.7762709251)
